STARLINK-32098          
1 59704U 24086Y   26067.99576349 -.00000531  00000+0 -97656-5 0  9996
2 59704  43.0009  64.0121 0001402 255.1283 104.9413 15.27571772104001
FLOCK 4G-11             
1 62629U 25009W   26068.45629261  .00012672  00000+0  47740-3 0  9990
2 62629  97.3964 150.6183 0001611 333.5407  26.5750 15.27220677 63680
